INTELSAT 602 (IS-602)   
1 20315U 89087A   09160.58028461  .00000037  00000-0  10000-3 0  9032
2 20315   6.8907  66.2610 0001197   5.8835 212.6443  1.00272822 69642
INTELSAT 603 (IS-603)   
1 20523U 90021A   09158.88970439 -.00000155  00000-0  10000-3 0  4750
2 20523   6.3619  67.8477 0006026 281.5889 207.3459  1.00271861 63389
SBS-6                   
1 20872U 90091A   09159.12857295 -.00000266  00000-0  10000-3 0   676
2 20872   1.7576  80.9208 0007908 316.7014  42.3636  0.98994471 56691
INTELSAT 605 (IS-605)   
1 21653U 91055A   09160.33989337  .00000111  00000-0  00000+0 0  7910
2 21653   4.4225  73.4994 0003043 220.6325 139.0078  0.99322327 65222
INTELSAT 601 (IS-601)   
1 21765U 91075A   09160.84254403  .00000128  00000-0  10000-3 0  7868
2 21765   4.4665  72.4068 0000223 290.3224 246.4056  1.00273726 64346
INTELSAT 701 (IS-701)   
1 22871U 93066A   09159.46790436  .00000058  00000-0  10000-3 0  3707
2 22871   0.0047 317.8568 0003051 118.9193 168.6451  1.00273377 57117
INTELSAT 702 (IS-702)   
1 23124U 94034A   09159.82915721  .00000003  00000-0  10000-3 0  2294
2 23124   0.0203  27.9055 0001733 359.7654 234.1633  1.00272151 69039
INTELSAT 2 (IS-2)       
1 23175U 94040A   09160.47036492 -.00000024  00000-0  10000-3 0  4453
2 23175   0.4409  85.5055 0002647 340.7667 170.1309  1.00273167 53957
INTELSAT 704 (IS-704)   
1 23461U 95001A   09160.88882286 -.00000131  00000-0  10000-3 0  9706
2 23461   0.1163  65.6025 0001011  22.5892 134.5854  0.99184054 52821
INTELSAT 705 (IS-705)   
1 23528U 95013A   09159.19528642 -.00000277  00000-0  10000-3 0  8641
2 23528   0.0117  21.9936 0002713   6.2004 248.8377  1.00270229 51981
INTELSAT 706 (IS-706)   
1 23571U 95023A   09161.73250807  .00000092  00000-0  10000-3 0  9418
2 23571   0.0149   6.9707 0003019  66.8114 143.9876  1.00273577 51503
INTELSAT 3R (IS-3R)     
1 23764U 96002A   09158.88077255 -.00000264  00000-0  10000-3 0  6437
2 23764   0.0091 275.3686 0002416 139.9595 115.1538  1.00272447 49098
HGS-3                   
1 23779U 96006A   09159.89315475  .00000159  00000-0  10000-3 0  2144
2 23779   0.0414 183.7583 0002596 262.0826 171.1246  1.00274947 48842
INTELSAT 707 (IS-707)   
1 23816U 96015A   09162.00427435 -.00000278  00000-0  10000-3 0  8603
2 23816   0.0013 345.6909 0003661 115.7080 106.6044  1.00270094 48512
GALAXY 9 (G-9)          
1 23877U 96033A   09161.16237251 -.00000219  00000-0  10000-3 0   967
2 23877   0.7697  80.6128 0001626   2.4089 153.0753  1.00271075 47795
INTELSAT 709 (IS-709)   
1 23915U 96035A   09161.90559556 -.00000177  00000-0  10000-3 0  9534
2 23915   0.0124 300.9849 0002948 143.0874 226.4617  1.00263591 47592
INTELSAT 801 (IS-801)   
1 24742U 97009A   09162.08046524 -.00000217  00000-0  10000-3 0  6274
2 24742   0.7170  83.3178 0004751 342.7736 190.9249  1.00271966 45011
GALAXY 25 (G-25)        
1 24812U 97026A   09160.19299668 -.00000157  00000-0  10000-3 0  9232
2 24812   0.0169  30.6999 0003284  44.7590 158.6021  1.00271585 44120
INTELSAT 802 (IS-802)   
1 24846U 97031A   09161.68801003  .00000162  00000-0  00000+0 0  8309
2 24846   0.0135 356.0701 0002599  81.6621 102.0210  1.00273200 43857
INTELSAT 5 (IS-5)       
1 24916U 97046A   09160.52942988 -.00000025  00000-0  10000-3 0  7856
2 24916   0.0246  39.5261 0002969  53.1539 164.9173  1.00272254 43296
INTELSAT 805 (IS-805)   
1 25371U 98037A   09161.09573575 -.00000280  00000-0  10000-3 0  3677
2 25371   0.0026 135.5669 0003613 310.9119 151.0551  1.00270298 40236
INTELSAT 7 (IS-7)       
1 25473U 98052A   09161.71753514 -.00000020  00000-0  10000-3 0  7989
2 25473   0.0400  79.9801 0003314 357.5501 148.6151  1.00271811 39322
INTELSAT 8 (IS-8)       
1 25522U 98065A   09159.36073770 -.00000051  00000-0  10000-3 0  6472
2 25522   0.0138 332.5714 0003387  97.7326 122.4388  1.00272774 38874
GALAXY 26 (G-26)        
1 25626U 99005A   09160.99812719  .00000116  00000-0  10000-3 0  4948
2 25626   0.0083 352.1791 0002785  78.2416 238.1391  1.00273201 37803
INSAT-2E (APR-1)        
1 25666U 99016A   09160.97866564 -.00000159  00000-0  10000-3 0  4284
2 25666   0.1086  77.1567 0004113   0.7561 255.8897  1.00271571 37427
GALAXY 27 (G-27)        
1 25922U 99052A   09160.53406543  .00000064  00000-0  10000-3 0  5003
2 25922   0.0015 163.0076 0001935 260.8436 257.4300  1.00272797 35541
GALAXY 11 (G-11)        
1 26038U 99071A   09159.90498999  .00000161  00000-0  00000+0 0  7227
2 26038   0.0338 171.0119 0000107 358.3205  86.6908  1.00273124 34766
GALAXY 4R (G-4R)        
1 26298U 00020A   09159.98545438  .00000006  00000-0  10000-3 0  6996
2 26298   2.6669  76.6563 0001575 348.2896  11.1377  0.99842731 33592
INTELSAT 9 (IS-9)       
1 26451U 00043A   09159.28973028 -.00000280  00000-0  10000-3 0  2413
2 26451   0.0003 320.8898 0001830 123.7802 218.4212  1.00270418 32497
INTELSAT 12 (IS-12)     
1 26590U 00068A   09159.98548745  .00000142  00000-0  10000-3 0  2905
2 26590   0.0038 284.2413 0002850 158.7695 214.2487  1.00272125 31568
INTELSAT 1R (IS-1R)     
1 26608U 00072A   09161.09650501 -.00000268  00000-0  10000-3 0   570
2 26608   0.0329 242.3521 0000794  54.3111 311.6536  1.00270388 31426
INTELSAT 10 (IS-10)     
1 26766U 01019A   09161.71753273 -.00000018  00000-0  10000-3 0  3897
2 26766   0.0192 310.1965 0002911 129.7508 146.0424  1.00272995 29604
INTELSAT 901 (IS-901)   
1 26824U 01024A   09162.06527862 -.00000134  00000-0  00000+0 0  4266
2 26824   0.0228  26.4238 0003531  52.4109 186.1982  1.00271540 29358
INTELSAT 902 (IS-902)   
1 26900U 01039A   09159.62995663  .00000038  00000-0  10000-3 0  4079
2 26900   0.0050 348.4047 0003347  90.2146 107.2997  1.00273064 28506
INTELSAT 904 (IS-904)   
1 27380U 02007A   09160.56996490  .00000054  00000-0  10000-3 0  4238
2 27380   0.0129 330.0769 0003056 101.2796  91.8862  1.00272302 26764
INTELSAT 903 (IS-903)   
1 27403U 02016A   09162.06699172 -.00000231  00000-0  10000-3 0  2201
2 27403   0.0327  49.5230 0001585  25.6533 173.9936  1.00270923 26433
INTELSAT 905 (IS-905)   
1 27438U 02027A   09158.91643976 -.00000180  00000-0  00000+0 0   735
2 27438   0.0308 251.7434 0009664 230.2546  79.7809  1.00271018 25726
GALAXY 3C (G-3C)        
1 27445U 02030A   09160.17356632 -.00000146  00000-0  10000-3 0   364
2 27445   0.0351 143.4420 0000455   5.2738  76.3838  1.00271620 25618
INTELSAT 906 (IS-906)   
1 27513U 02041A   09160.96685039  .00000020  00000-0  10000-3 0  1940
2 27513   0.0203  27.2427 0002905  52.4715 230.9518  1.00271632 24791
INTELSAT 907 (IS-907)   
1 27683U 03007A   09161.97736466 -.00000196  00000-0  10000-3 0  7888
2 27683   0.0102 347.3328 0002965  82.7765 153.6944  1.00270578 23162
GALAXY 12 (G-12)        
1 27715U 03013B   09161.39965395  .00000030  00000-0  00000+0 0  1236
2 27715   0.0193 357.1982 0003223 114.6640 167.9896  1.00273694 22679
GALAXY 23 (G-23)        
1 27854U 03034A   09161.61863596  .00000019  00000-0  10000-3 0  9913
2 27854   0.0190  17.4268 0003163  55.6070 287.7742  1.00273123 21449
GALAXY 13 (HORIZONS-1)  
1 27954U 03044A   09159.59152260  .00000053  00000-0  10000-3 0  8993
2 27954   0.0098   7.6173 0002136  86.0796 249.3543  1.00273478 20899
INTELSAT 10-02          
1 28358U 04022A   09158.66896589 -.00000006  00000-0  10000-3 0  7083
2 28358   0.0252 178.7080 0000779 208.1396 109.2026  1.00273069 18276
GALAXY 28 (G-28)        
1 28702U 05022A   09160.19270057 -.00000180  00000-0  10000-3 0  6592
2 28702   0.0080 274.5177 0001955 179.3271 144.1827  1.00271049 14558
GALAXY 14 (G-14)        
1 28790U 05030A   09160.60511557  .00000042  00000-0  10000-3 0  7370
2 28790   0.0166 359.9089 0002697  75.6854 275.3368  1.00272633 13971
GALAXY 15 (G-15)        
1 28884U 05041A   09159.43217176  .00000084  00000-0  10000-3 0  6392
2 28884   0.0054 334.8314 0002640  91.5881 213.1099  1.00273420 13391
GALAXY 16 (G-16)        
1 29236U 06023A   09161.40297150 -.00000121  00000-0  10000-3 0  5308
2 29236   0.0258  93.3344 0003356 349.7624 221.8447  1.00272032 10935
GALAXY 17 (G-17)        
1 31307U 07016B   09160.23776141 -.00000169  00000-0  10000-3 0  3787
2 31307   0.0222   2.5924 0003797  72.5392 177.1997  1.00271394  7733
INTELSAT 11 (IS-11)     
1 32253U 07044B   09158.88077255 -.00000264  00000-0  10000-3 0  2366
2 32253   0.0101  30.8083 0002555  42.9147  96.6517  1.00270410  6178
HORIZONS 2              
1 32388U 07063B   09159.42827979 -.00000247  00000-0  10000-3 0  2285
2 32388   0.0063 339.2380 0002713 100.2645 257.5604  1.00271278  5523
GALAXY 18 (G-18)        
1 32951U 08024A   09160.62378947  .00000030  00000-0  00000+0 0  1743
2 32951   0.0159 320.1878 0003225 113.1843 286.3028  1.00273088  3875
